<?xml version="1.0" encoding="UTF-8"?>
<ndm xmlns:xsi="http://www.w3.org/2001/XMLSchema-instance" xsi:noNamespaceSchemaLocation="https://sanaregistry.org/r/ndmxml_unqualified/ndmxml-2.0.0-master-2.0.xsd">
<omm id="CCSDS_OMM_VERS" version="2.0">
<header><CREATION_DATE/><ORIGINATOR/></header><body><segment><metadata><OBJECT_NAME>IRIDIUM 171</OBJECT_NAME><OBJECT_ID>2019-002H</OBJECT_ID><CENTER_NAME>EARTH</CENTER_NAME><REF_FRAME>TEME</REF_FRAME><TIME_SYSTEM>UTC</TIME_SYSTEM><MEAN_ELEMENT_THEORY>SGP4</MEAN_ELEMENT_THEORY></metadata><data><meanElements><EPOCH>2024-03-11T11:56:15.036000</EPOCH><MEAN_MOTION>14.34217759</MEAN_MOTION><ECCENTRICITY>.0002324</ECCENTRICITY><INCLINATION>86.4026</INCLINATION><RA_OF_ASC_NODE>339.7105</RA_OF_ASC_NODE><ARG_OF_PERICENTER>83.3030</ARG_OF_PERICENTER><MEAN_ANOMALY>276.8430</MEAN_ANOMALY></meanElements><tleParameters><EPHEMERIS_TYPE>0</EPHEMERIS_TYPE><CLASSIFICATION_TYPE>U</CLASSIFICATION_TYPE><NORAD_CAT_ID>43929</NORAD_CAT_ID><ELEMENT_SET_NO>999</ELEMENT_SET_NO><REV_AT_EPOCH>27032</REV_AT_EPOCH><BSTAR>.11046E-3</BSTAR><MEAN_MOTION_DOT>.329E-5</MEAN_MOTION_DOT><MEAN_MOTION_DDOT>0</MEAN_MOTION_DDOT></tleParameters></data></segment></body></omm>
<omm id="CCSDS_OMM_VERS" version="2.0">
<header><CREATION_DATE/><ORIGINATOR/></header><body><segment><metadata><OBJECT_NAME>IRIDIUM 170</OBJECT_NAME><OBJECT_ID>2019-002J</OBJECT_ID><CENTER_NAME>EARTH</CENTER_NAME><REF_FRAME>TEME</REF_FRAME><TIME_SYSTEM>UTC</TIME_SYSTEM><MEAN_ELEMENT_THEORY>SGP4</MEAN_ELEMENT_THEORY></metadata><data><meanElements><EPOCH>2024-03-11T10:53:59.369568</EPOCH><MEAN_MOTION>14.72306096</MEAN_MOTION><ECCENTRICITY>.0002729</ECCENTRICITY><INCLINATION>86.6144</INCLINATION><RA_OF_ASC_NODE>339.5641</RA_OF_ASC_NODE><ARG_OF_PERICENTER>84.4355</ARG_OF_PERICENTER><MEAN_ANOMALY>275.7174</MEAN_ANOMALY></meanElements><tleParameters><EPHEMERIS_TYPE>0</EPHEMERIS_TYPE><CLASSIFICATION_TYPE>U</CLASSIFICATION_TYPE><NORAD_CAT_ID>43930</NORAD_CAT_ID><ELEMENT_SET_NO>999</ELEMENT_SET_NO><REV_AT_EPOCH>27747</REV_AT_EPOCH><BSTAR>.21899E-3</BSTAR><MEAN_MOTION_DOT>.1407E-4</MEAN_MOTION_DOT><MEAN_MOTION_DDOT>0</MEAN_MOTION_DDOT></tleParameters></data></segment></body></omm>
<omm id="CCSDS_OMM_VERS" version="2.0">
<header><CREATION_DATE/><ORIGINATOR/></header><body><segment><metadata><OBJECT_NAME>IRIDIUM 167</OBJECT_NAME><OBJECT_ID>2019-002K</OBJECT_ID><CENTER_NAME>EARTH</CENTER_NAME><REF_FRAME>TEME</REF_FRAME><TIME_SYSTEM>UTC</TIME_SYSTEM><MEAN_ELEMENT_THEORY>SGP4</MEAN_ELEMENT_THEORY></metadata><data><meanElements><EPOCH>2024-03-11T11:47:06.972288</EPOCH><MEAN_MOTION>14.34216672</MEAN_MOTION><ECCENTRICITY>.0002251</ECCENTRICITY><INCLINATION>86.4018</INCLINATION><RA_OF_ASC_NODE>339.5137</RA_OF_ASC_NODE><ARG_OF_PERICENTER>83.0978</ARG_OF_PERICENTER><MEAN_ANOMALY>277.0473</MEAN_ANOMALY></meanElements><tleParameters><EPHEMERIS_TYPE>0</EPHEMERIS_TYPE><CLASSIFICATION_TYPE>U</CLASSIFICATION_TYPE><NORAD_CAT_ID>43931</NORAD_CAT_ID><ELEMENT_SET_NO>999</ELEMENT_SET_NO><REV_AT_EPOCH>27032</REV_AT_EPOCH><BSTAR>.37316E-4</BSTAR><MEAN_MOTION_DOT>.124E-5</MEAN_MOTION_DOT><MEAN_MOTION_DDOT>0</MEAN_MOTION_DDOT></tleParameters></data></segment></body></omm>
<omm id="CCSDS_OMM_VERS" version="2.0">
<header><CREATION_DATE/><ORIGINATOR/></header><body><segment><metadata><OBJECT_NAME>IRIDIUM 181</OBJECT_NAME><OBJECT_ID>2023-068S</OBJECT_ID><CENTER_NAME>EARTH</CENTER_NAME><REF_FRAME>TEME</REF_FRAME><TIME_SYSTEM>UTC</TIME_SYSTEM><MEAN_ELEMENT_THEORY>SGP4</MEAN_ELEMENT_THEORY></metadata><data><meanElements><EPOCH>2024-03-11T13:53:04.983360</EPOCH><MEAN_MOTION>14.43611273</MEAN_MOTION><ECCENTRICITY>.0002972</ECCENTRICITY><INCLINATION>86.8661</INCLINATION><RA_OF_ASC_NODE>28.4273</RA_OF_ASC_NODE><ARG_OF_PERICENTER>85.9061</ARG_OF_PERICENTER><MEAN_ANOMALY>274.2480</MEAN_ANOMALY></meanElements><tleParameters><EPHEMERIS_TYPE>0</EPHEMERIS_TYPE><CLASSIFICATION_TYPE>U</CLASSIFICATION_TYPE><NORAD_CAT_ID>56726</NORAD_CAT_ID><ELEMENT_SET_NO>999</ELEMENT_SET_NO><REV_AT_EPOCH>4305</REV_AT_EPOCH><BSTAR>.15798E-3</BSTAR><MEAN_MOTION_DOT>.555E-5</MEAN_MOTION_DOT><MEAN_MOTION_DDOT>0</MEAN_MOTION_DDOT></tleParameters></data></segment></body></omm>
<omm id="CCSDS_OMM_VERS" version="2.0">
<header><CREATION_DATE/><ORIGINATOR/></header><body><segment><metadata><OBJECT_NAME>IRIDIUM 177</OBJECT_NAME><OBJECT_ID>2023-068T</OBJECT_ID><CENTER_NAME>EARTH</CENTER_NAME><REF_FRAME>TEME</REF_FRAME><TIME_SYSTEM>UTC</TIME_SYSTEM><MEAN_ELEMENT_THEORY>SGP4</MEAN_ELEMENT_THEORY></metadata><data><meanElements><EPOCH>2024-03-11T08:06:46.277568</EPOCH><MEAN_MOTION>14.80251195</MEAN_MOTION><ECCENTRICITY>.0002691</ECCENTRICITY><INCLINATION>86.2034</INCLINATION><RA_OF_ASC_NODE>1.8096</RA_OF_ASC_NODE><ARG_OF_PERICENTER>88.6125</ARG_OF_PERICENTER><MEAN_ANOMALY>271.5404</MEAN_ANOMALY></meanElements><tleParameters><EPHEMERIS_TYPE>0</EPHEMERIS_TYPE><CLASSIFICATION_TYPE>U</CLASSIFICATION_TYPE><NORAD_CAT_ID>56727</NORAD_CAT_ID><ELEMENT_SET_NO>999</ELEMENT_SET_NO><REV_AT_EPOCH>4390</REV_AT_EPOCH><BSTAR>.27418E-3</BSTAR><MEAN_MOTION_DOT>.2111E-4</MEAN_MOTION_DOT><MEAN_MOTION_DDOT>0</MEAN_MOTION_DDOT></tleParameters></data></segment></body></omm>
<omm id="CCSDS_OMM_VERS" version="2.0">
<header><CREATION_DATE/><ORIGINATOR/></header><body><segment><metadata><OBJECT_NAME>IRIDIUM 174</OBJECT_NAME><OBJECT_ID>2023-068U</OBJECT_ID><CENTER_NAME>EARTH</CENTER_NAME><REF_FRAME>TEME</REF_FRAME><TIME_SYSTEM>UTC</TIME_SYSTEM><MEAN_ELEMENT_THEORY>SGP4</MEAN_ELEMENT_THEORY></metadata><data><meanElements><EPOCH>2024-03-11T12:50:59.914752</EPOCH><MEAN_MOTION>14.80251863</MEAN_MOTION><ECCENTRICITY>.0002602</ECCENTRICITY><INCLINATION>86.2040</INCLINATION><RA_OF_ASC_NODE>1.8117</RA_OF_ASC_NODE><ARG_OF_PERICENTER>90.5202</ARG_OF_PERICENTER><MEAN_ANOMALY>269.6317</MEAN_ANOMALY></meanElements><tleParameters><EPHEMERIS_TYPE>0</EPHEMERIS_TYPE><CLASSIFICATION_TYPE>U</CLASSIFICATION_TYPE><NORAD_CAT_ID>56728</NORAD_CAT_ID><ELEMENT_SET_NO>999</ELEMENT_SET_NO><REV_AT_EPOCH>4393</REV_AT_EPOCH><BSTAR>.27921E-3</BSTAR><MEAN_MOTION_DOT>.2149E-4</MEAN_MOTION_DOT><MEAN_MOTION_DDOT>0</MEAN_MOTION_DDOT></tleParameters></data></segment></body></omm>
<omm id="CCSDS_OMM_VERS" version="2.0">
<header><CREATION_DATE/><ORIGINATOR/></header><body><segment><metadata><OBJECT_NAME>IRIDIUM 178</OBJECT_NAME><OBJECT_ID>2023-068V</OBJECT_ID><CENTER_NAME>EARTH</CENTER_NAME><REF_FRAME>TEME</REF_FRAME><TIME_SYSTEM>UTC</TIME_SYSTEM><MEAN_ELEMENT_THEORY>SGP4</MEAN_ELEMENT_THEORY></metadata><data><meanElements><EPOCH>2024-03-11T07:51:11.496960</EPOCH><MEAN_MOTION>14.80251486</MEAN_MOTION><ECCENTRICITY>.0002541</ECCENTRICITY><INCLINATION>86.5835</INCLINATION><RA_OF_ASC_NODE>14.7234</RA_OF_ASC_NODE><ARG_OF_PERICENTER>90.3727</ARG_OF_PERICENTER><MEAN_ANOMALY>269.7786</MEAN_ANOMALY></meanElements><tleParameters><EPHEMERIS_TYPE>0</EPHEMERIS_TYPE><CLASSIFICATION_TYPE>U</CLASSIFICATION_TYPE><NORAD_CAT_ID>56729</NORAD_CAT_ID><ELEMENT_SET_NO>999</ELEMENT_SET_NO><REV_AT_EPOCH>4390</REV_AT_EPOCH><BSTAR>.26056E-3</BSTAR><MEAN_MOTION_DOT>.2007E-4</MEAN_MOTION_DOT><MEAN_MOTION_DDOT>0</MEAN_MOTION_DDOT></tleParameters></data></segment></body></omm>
<omm id="CCSDS_OMM_VERS" version="2.0">
<header><CREATION_DATE/><ORIGINATOR/></header><body><segment><metadata><OBJECT_NAME>IRIDIUM 179</OBJECT_NAME><OBJECT_ID>2023-068W</OBJECT_ID><CENTER_NAME>EARTH</CENTER_NAME><REF_FRAME>TEME</REF_FRAME><TIME_SYSTEM>UTC</TIME_SYSTEM><MEAN_ELEMENT_THEORY>SGP4</MEAN_ELEMENT_THEORY></metadata><data><meanElements><EPOCH>2024-03-11T14:12:46.816128</EPOCH><MEAN_MOTION>14.80251792</MEAN_MOTION><ECCENTRICITY>.0002657</ECCENTRICITY><INCLINATION>86.6842</INCLINATION><RA_OF_ASC_NODE>17.5124</RA_OF_ASC_NODE><ARG_OF_PERICENTER>92.3234</ARG_OF_PERICENTER><MEAN_ANOMALY>267.8292</MEAN_ANOMALY></meanElements><tleParameters><EPHEMERIS_TYPE>0</EPHEMERIS_TYPE><CLASSIFICATION_TYPE>U</CLASSIFICATION_TYPE><NORAD_CAT_ID>56730</NORAD_CAT_ID><ELEMENT_SET_NO>999</ELEMENT_SET_NO><REV_AT_EPOCH>4394</REV_AT_EPOCH><BSTAR>.26373E-3</BSTAR><MEAN_MOTION_DOT>.2031E-4</MEAN_MOTION_DOT><MEAN_MOTION_DDOT>0</MEAN_MOTION_DDOT></tleParameters></data></segment></body></omm>
</ndm>
