43929,IRIDIUM 171,2019,100.4,860.0,+,86.4,Active,1,LEO,USA,USA,Commercial/Government,Communications,Falcon,1 43929U 19002H   24071.49739625  .00000329  00000+0  11046-3 0  9996,2 43929  86.4026 339.7105 0002324  83.3030 276.8430 14.34217759270328,14.34217759,0.0002324,LEO
43930,IRIDIUM 170,2019,97.81,860.0,+,86.61,Active,1,LEO,USA,USA,Commercial/Government,Communications,Falcon,1 43930U 19002J   24071.45415937  .00001407  00000+0  21899-3 0  9996,2 43930  86.6144 339.5641 0002729  84.4355 275.7174 14.72306096277478,14.72306096,0.0002729,LEO
43931,IRIDIUM 167,2019,100.4,860.0,+,86.4,Active,1,LEO,USA,USA,Commercial/Government,Communications,Falcon,1 43931U 19002K   24071.49105292  .00000124  00000+0  37316-4 0  9998,2 43931  86.4018 339.5137 0002251  83.0978 277.0473 14.34216672270325,14.34216672,0.0002251,LEO
56726,IRIDIUM 181,2023,99.75,-1.0,+,86.87,Active,0,LEO,USA,USA,Unknown,Unknown,Unknown,1 56726U 23068S   24071.57852990  .00000555  00000+0  15798-3 0  9991,2 56726  86.8661  28.4273 0002972  85.9061 274.2480 14.43611273 43059,14.43611273,0.0002972,LEO
56727,IRIDIUM 177,2023,97.28,-1.0,+,86.2,Active,0,LEO,USA,USA,Unknown,Unknown,Unknown,1 56727U 23068T   24071.33803562  .00002111  00000+0  27418-3 0  9999,2 56727  86.2034   1.8096 0002691  88.6125 271.5404 14.80251195 43909,14.80251195,0.0002691,LEO
56728,IRIDIUM 174,2023,97.28,-1.0,+,86.2,Active,0,LEO,USA,USA,Unknown,Unknown,Unknown,1 56728U 23068U   24071.53541568  .00002149  00000+0  27921-3 0  9997,2 56728  86.2040   1.8117 0002602  90.5202 269.6317 14.80251863 43937,14.80251863,0.0002602,LEO
56729,IRIDIUM 178,2023,97.28,-1.0,+,86.58,Active,0,LEO,USA,USA,Unknown,Unknown,Unknown,1 56729U 23068V   24071.32721640  .00002007  00000+0  26056-3 0  9997,2 56729  86.5835  14.7234 0002541  90.3727 269.7786 14.80251486 43907,14.80251486,0.0002541,LEO
56730,IRIDIUM 179,2023,97.28,-1.0,+,86.68,Active,0,LEO,USA,USA,Unknown,Unknown,Unknown,1 56730U 23068W   24071.59220852  .00002031  00000+0  26373-3 0  9996,2 56730  86.6842  17.5124 0002657  92.3234 267.8292 14.80251792 43945,14.80251792,0.0002657,LEO
